     2.100          NAVIGATION                              RINEX VERSION / TYPE
fic2rin                                 09/22/2010 00:30:46 PGM / RUN BY / DATE
                                                            END OF HEADER
28 10  9 21 16  0  0.0 -.270176678896D-05  .147792889038D-11  .000000000000D+00
     .700000000000D+02 -.189062500000D+02  .468483799945D-08  .225398481323D+01
    -.122748315334D-05  .161962999264D-01  .300072133541D-05  .515367725754D+04
     .230400000000D+06  .875443220139D-07  .146317383246D+01 -.312924385071D-06
     .971163613366D+00  .327343750000D+03 -.194621472818D+01 -.809426573009D-08
    -.607168148133D-10  .100000000000D+01  .160200000000D+04  .000000000000D+00
     .240000000000D+01  .000000000000D+00 -.107102096081D-07  .700000000000D+02
     .223206000000D+06  .400000000000D+01
29 10  9 21 16  0  0.0  .150956679136D-03  .261479726760D-11  .000000000000D+00
     .160000000000D+02 -.724062500000D+02  .438089676765D-08 -.198423137404D+01
    -.384822487831D-05  .265065557323D-02  .109951943159D-04  .515367393684D+04
     .230400000000D+06 -.931322574615D-08  .250729277691D+01  .670552253723D-07
     .961113215480D+00  .165500000000D+03 -.125041205506D+01 -.792890169915D-08
    -.444661379074D-09  .100000000000D+01  .160200000000D+04  .000000000000D+00
     .240000000000D+01  .000000000000D+00 -.884756445885D-08  .160000000000D+02
     .223206000000D+06  .400000000000D+01
30 10  9 21 16  0  0.0  .280380714685D-03  .341060513165D-11  .000000000000D+00
     .590000000000D+02 -.125000000000D+01  .511164149181D-08  .264446324965D+01
    -.171363353729D-06  .126228160225D-01  .236183404922D-05  .515368734360D+04
     .230400000000D+06  .122934579849D-06  .138259156333D+01 -.139698386192D-06
     .957124269439D+00  .328687500000D+03  .151712778143D+01 -.837713465557D-08
    -.367872466222D-10  .100000000000D+01  .160200000000D+04  .000000000000D+00
     .240000000000D+01  .000000000000D+00 -.791624188423D-08  .590000000000D+02
     .223206000000D+06  .400000000000D+01
31 10  9 21 16  0  0.0 -.738492235541D-05  .318323145621D-11  .000000000000D+00
     .102000000000D+03  .720000000000D+02  .418267422517D-08 -.126194926779D+01
     .371411442757D-05  .739880208857D-02  .979937613010D-05  .515376661110D+04
     .230400000000D+06 -.156462192535D-06  .383942250107D+00 -.540167093277D-07
     .978125685855D+00  .205843750000D+03 -.105145086165D+01 -.793104464556D-08
     .525021869268D-09  .100000000000D+01  .160200000000D+04  .000000000000D+00
     .340000000000D+01  .000000000000D+00 -.130385160446D-07  .102000000000D+03
     .223206000000D+06  .400000000000D+01
 2 10  9 21 15 59 44.0  .290113501251D-03  .272848410532D-11  .000000000000D+00
     .500000000000D+01  .624375000000D+02  .503878131404D-08  .428689675251D+00
     .315904617310D-05  .969883054495D-02  .922568142414D-05  .515364230156D+04
     .230384000000D+06  .217929482460D-06 -.277871902050D+01  .707805156708D-07
     .939975864716D+00  .190031250000D+03  .313317094435D+01 -.842749389609D-08
     .296083761649D-09  .100000000000D+01  .160200000000D+04  .000000000000D+00
     .240000000000D+01  .000000000000D+00 -.172294676304D-07  .500000000000D+01
     .224796000000D+06  .400000000000D+01
14 10  9 21 15 59 28.0  .907992944121D-04  .363797880709D-11  .000000000000D+00
     .000000000000D+00 -.508437500000D+02  .370944022736D-08  .111413018070D+01
    -.265054404736D-05  .565086246934D-02  .112019479275D-04  .515357842445D+04
     .230368000000D+06 -.987201929092D-07 -.617202621424D+00 -.335276126862D-07
     .985245611594D+00  .173687500000D+03 -.212319529510D+01 -.771960726691D-08
    -.351443210449D-09  .100000000000D+01  .160200000000D+04  .000000000000D+00
     .240000000000D+01  .000000000000D+00 -.884756445885D-08  .000000000000D+00
     .229326000000D+06  .400000000000D+01
14 10  9 21 17 59 28.0  .908253714442D-04  .363797880709D-11  .000000000000D+00
     .600000000000D+01 -.504375000000D+02  .363693720732D-08  .216445740277D+01
    -.253133475780D-05  .565124687273D-02  .115316361189D-04  .515357738304D+04
     .237568000000D+06 -.111758708954D-07 -.617258159646D+00 -.156462192535D-06
     .985243721504D+00  .167156250000D+03 -.212328940901D+01 -.759531637541D-08
    -.315727437029D-09  .100000000000D+01  .160200000000D+04  .000000000000D+00
     .240000000000D+01  .000000000000D+00 -.884756445885D-08  .600000000000D+01
     .230406000000D+06  .400000000000D+01
 2 10  9 21 17 59 44.0  .290133059025D-03  .272848410532D-11  .000000000000D+00
     .600000000000D+01  .657187500000D+02  .499342228180D-08  .147883681942D+01
     .355951488018D-05  .969908211846D-02  .940449535847D-05  .515364344025D+04
     .237584000000D+06  .558793544769D-08 -.277877818237D+01  .171363353729D-06
     .939977871840D+00  .187187500000D+03  .313322671225D+01 -.828463080241D-08
     .150363406097D-09  .100000000000D+01  .160200000000D+04  .000000000000D+00
     .240000000000D+01  .000000000000D+00 -.172294676304D-07  .600000000000D+01
     .230406000000D+06  .400000000000D+01
 1 10  9 21 18  0  0.0 -.164789613336D-03 -.386535248253D-11  .000000000000D+00
     .380000000000D+02 -.603125000000D+01  .496663545173D-08  .292261104006D+01
    -.400468707085D-06  .449053128250D-02  .296160578728D-05  .515362301254D+04
     .237600000000D+06 -.242143869400D-07  .142286138976D+01 -.633299350739D-07
     .965656316353D+00  .327687500000D+03  .959031582532D+00 -.838356349478D-08
     .332156692802D-10  .100000000000D+01  .160200000000D+04  .000000000000D+00
     .240000000000D+01  .630000000000D+02 -.190921127796D-07  .380000000000D+02
     .230406000000D+06  .400000000000D+01
 3 10  9 21 18  0  0.0  .611403491348D-03  .500222085975D-11  .000000000000D+00
     .310000000000D+02 -.934375000000D+02  .542272587830D-08  .135737004080D+01
    -.477954745293D-05  .136723842006D-01  .932626426220D-05  .515361416245D+04
     .237600000000D+06 -.303611159325D-06  .235075324101D+01 -.186264514923D-08
     .927771622784D+00  .187781250000D+03  .103786751807D+01 -.864786021809D-08
    -.448590114150D-09  .100000000000D+01  .160200000000D+04  .000000000000D+00
     .240000000000D+01  .000000000000D+00 -.465661287308D-08  .310000000000D+02
     .230406000000D+06  .400000000000D+01
 4 10  9 21 18  0  0.0  .175331719220D-03  .920863385545D-11  .000000000000D+00
     .670000000000D+02  .639375000000D+02  .494377735674D-08 -.177886133987D+01
     .325776636600D-05  .929000810720D-02  .905804336071D-05  .515375435257D+04
     .237600000000D+06  .800937414169D-07 -.276107085224D+01 -.931322574615D-07
     .939092623537D+00  .193125000000D+03  .644193872529D+00 -.816105422638D-08
     .378587198248D-09  .100000000000D+01  .160200000000D+04  .000000000000D+00
     .240000000000D+01  .000000000000D+00 -.605359673500D-08  .670000000000D+02
     .230406000000D+06  .400000000000D+01
 5 10  9 21 18  0  0.0 -.399276614189D-04 -.545696821064D-11  .000000000000D+00
     .108000000000D+03 -.618750000000D+01  .500342269835D-08  .313790743567D+01
    -.374391674995D-06  .195841945242D-02  .342167913914D-05  .515378435898D+04
     .237600000000D+06  .000000000000D+00 -.171808772178D+01 -.745058059692D-08
     .956553497321D+00  .312843750000D+03  .164937740445D+00 -.846106672311D-08
    -.116433421348D-09  .100000000000D+01  .160200000000D+04  .000000000000D+00
     .240000000000D+01  .000000000000D+00 -.884756445885D-08  .108000000000D+03
     .230406000000D+06  .400000000000D+01
 6 10  9 21 18  0  0.0  .484884716570D-03 -.148929757415D-10  .000000000000D+00
     .430000000000D+02 -.841562500000D+02  .509021202776D-08 -.274099385230D+01
    -.419840216637D-05  .617279624566D-02  .959821045399D-05  .515366332054D+04
     .237600000000D+06 -.130385160446D-07  .242232896135D+01  .912696123123D-07
     .935106424856D+00  .178437500000D+03 -.953562515958D+00 -.822177104119D-08
    -.348943106310D-09  .100000000000D+01  .160200000000D+04  .000000000000D+00
     .240000000000D+01  .000000000000D+00 -.512227416039D-08  .430000000000D+02
     .230406000000D+06  .400000000000D+01
 7 10  9 21 18  0  0.0 -.176765024662D-05  .113686837722D-12  .000000000000D+00
     .410000000000D+02  .684062500000D+02  .413088635371D-08 -.184942473699D+00
     .363402068615D-05  .408213213086D-02  .908225774765D-05  .515369367218D+04
     .237600000000D+06  .391155481339D-07  .383755039018D+00 -.111758708954D-07
     .972907465844D+00  .209375000000D+03  .309168247205D+01 -.793354474970D-08
     .479305679291D-09  .100000000000D+01  .160200000000D+04  .000000000000D+00
     .240000000000D+01  .000000000000D+00 -.102445483208D-07  .410000000000D+02
     .230406000000D+06  .400000000000D+01
 8 10  9 21 18  0  0.0  .673253089190D-05  .113686837722D-12  .000000000000D+00
     .108000000000D+03  .695000000000D+02  .370086844174D-08 -.782572598570D+00
     .351294875145D-05  .114856726723D-01  .849552452564D-05  .515366158867D+04
     .237600000000D+06  .147148966789D-06  .454061138109D+00 -.162050127983D-06
     .994342044989D+00  .229375000000D+03  .313526742299D+01 -.773532220722D-08
     .550022910662D-09  .100000000000D+01  .160200000000D+04  .000000000000D+00
     .340000000000D+01  .000000000000D+00 -.372529029846D-08  .108000000000D+03
     .230406000000D+06  .400000000000D+01
 9 10  9 21 18  0  0.0  .318451784551D-04  .227373675443D-11  .000000000000D+00
     .400000000000D+01  .799375000000D+02  .401088135502D-08 -.915613829963D+00
     .433064997196D-05  .170502095716D-01  .100117176771D-04  .515370597839D+04
     .237600000000D+06 -.171363353729D-06  .353456997646D+00  .204890966415D-06
     .981969166637D+00  .207062500000D+03  .155108408792D+01 -.806747890002D-08
     .552523014801D-09  .100000000000D+01  .160200000000D+04  .000000000000D+00
     .240000000000D+01  .000000000000D+00 -.558793544769D-08  .400000000000D+01
     .230406000000D+06  .400000000000D+01
